[{"OBJECT_NAME":"HIBARI","OBJECT_ID":"2021-102F","EPOCH":"2026-03-09T16:55:51.090816","MEAN_MOTION":15.29554512,"ECCENTRICITY":0.00120742,"INCLINATION":97.3381,"RA_OF_ASC_NODE":115.826,"ARG_OF_PERICENTER":186.5211,"MEAN_ANOMALY":173.5875,"EPHEMERIS_TYPE":0,"CLASSIFICATION_TYPE":"U","NORAD_CAT_ID":49400,"ELEMENT_SET_NO":999,"REV_AT_EPOCH":23897,"BSTAR":0.00042758039,"MEAN_MOTION_DOT":0.00012206,"MEAN_MOTION_DDOT":0},{"OBJECT_NAME":"STARLINK-33713","OBJECT_ID":"2025-070V","EPOCH":"2026-03-09T12:34:16.421952","MEAN_MOTION":15.27596738,"ECCENTRICITY":5.821e-5,"INCLINATION":42.9982,"RA_OF_ASC_NODE":257.0273,"ARG_OF_PERICENTER":282.1548,"MEAN_ANOMALY":77.9238,"EPHEMERIS_TYPE":0,"CLASSIFICATION_TYPE":"U","NORAD_CAT_ID":63479,"ELEMENT_SET_NO":999,"REV_AT_EPOCH":5299,"BSTAR":0.00086628638,"MEAN_MOTION_DOT":0.00023665,"MEAN_MOTION_DDOT":0}]
